OBJECT_NAME,OBJECT_ID,EPOCH,MEAN_MOTION,ECCENTRICITY,INCLINATION,RA_OF_ASC_NODE,ARG_OF_PERICENTER,MEAN_ANOMALY,EPHEMERIS_TYPE,CLASSIFICATION_TYPE,NORAD_CAT_ID,ELEMENT_SET_NO,REV_AT_EPOCH,BSTAR,MEAN_MOTION_DOT,MEAN_MOTION_DDOT
NIMIQ 2,2002-062A,2026-07-02T08:06:38.461824,1.00272169,.00056612,9.4788,56.7356,40.9478,195.1736,0,U,27632,999,4433,0,-.64E-6,0
USA 167,2003-008A,2026-07-02T04:50:51.268992,1.00272192,.00034493,10.9890,43.2717,317.9260,230.0707,0,U,27691,999,692,0,.9E-7,0
USA 169 (MILSTAR-2 4),2003-012A,2026-07-02T09:34:18.084288,1.00271480,.01002548,12.3711,29.7143,9.9927,176.4581,0,U,27711,999,3310,0,-.236E-5,0
ASIASAT 4,2003-014A,2026-07-02T12:58:17.822784,1.00272875,.00028671,4.7426,75.5536,28.9029,158.2288,0,U,27718,999,4545,0,-.214E-5,0
HELLAS-SAT 2,2003-020A,2026-07-02T08:48:08.364672,1.00272209,.00032393,7.3900,67.7034,57.6400,277.0736,0,U,27811,999,4299,0,-.78E-6,0
THURAYA-2,2003-026A,2026-07-02T03:55:31.443168,1.00270456,.00026995,8.8621,31.9095,15.8078,335.3888,0,U,27825,999,8449,0,.131E-5,0
OPTUS C1,2003-028B,2026-07-02T11:48:05.046912,1.00271527,.00056776,6.9255,69.2253,28.3795,155.7109,0,U,27831,999,5321,0,-.144E-5,0
USA 170,2003-040A,2026-07-01T23:13:44.156352,1.00272595,.0001877,10.5295,47.8062,28.3289,216.5069,0,U,27875,999,3314,0,.131E-5,0
GALAXY 13 (HORIZONS-1),2003-044A,2026-07-02T13:16:07.644864,1.00272262,.00016966,1.4582,83.6672,13.5458,232.3808,0,U,27954,999,4672,0,.142E-5,0
YAMAL 202,2003-053A,2026-07-02T16:22:31.036224,1.00271841,.00033164,6.3818,70.7514,22.7258,236.4110,0,U,28089,999,8285,0,-.73E-6,0
UFO 11 (USA 174),2003-057A,2026-07-02T10:55:42.991680,1.00272126,.00025012,8.9499,33.7514,78.2029,48.0736,0,U,28117,999,8260,0,-.98E-6,0
USA 176 (DSP 22),2004-004A,2026-07-02T10:19:31.409760,1.00271611,.00008582,12.0816,25.9539,315.6529,44.4742,0,U,28158,999,3308,0,-.29E-5,0
ABS-4 (MOBISAT-1),2004-007A,2026-07-02T05:43:04.681632,1.00270167,.00045096,6.0786,71.8244,28.9774,326.1964,0,U,28184,999,5248,0,.47E-6,0
INTELSAT 10-02,2004-022A,2026-07-02T02:00:00.605376,1.00271302,.00003219,0.0388,265.6144,255.3379,148.1780,0,U,28358,999,8070,0,-.1E-7,0
ANIK F2,2004-027A,2026-07-02T13:27:14.080896,1.00271863,.00040867,3.3249,79.2442,20.3625,271.6789,0,U,28378,999,4141,0,-.41E-6,0
AMC-15,2004-041A,2026-07-02T13:28:43.936896,1.00271876,.00024839,0.0153,352.0544,110.5324,275.1455,0,U,28446,999,7945,0,-.78E-6,0
NSS-10,2005-003A,2026-07-02T06:54:51.250752,1.00273242,.00031054,6.4850,70.2716,25.7363,250.5794,0,U,28526,999,5330,0,-.245E-5,0
INMARSAT 4-F1,2005-009A,2026-07-02T09:41:47.365152,1.00271734,.00029275,5.1874,42.7719,61.5295,139.7012,0,U,28628,999,7782,0,.41E-6,0
DIRECTV 8,2005-019A,2026-07-02T08:14:38.642784,1.00270485,.0003334,0.0190,26.9867,86.8864,171.1311,0,U,28659,999,7722,0,0,0
GALAXY 28 (G-28),2005-022A,2026-07-02T05:17:52.099296,1.00270650,.00025367,3.3353,78.7558,18.2071,235.6688,0,U,28702,999,5212,0,-.192E-5,0
THAICOM 4,2005-028A,2026-07-02T14:33:01.919808,1.00271077,.00019124,0.2831,85.6916,3.4386,169.2810,0,U,28786,999,5240,0,-.352E-5,0
ANIK F1R,2005-036A,2026-07-02T09:54:38.529216,1.00272064,.00043143,4.3493,76.3959,13.7403,231.6770,0,U,28868,999,4660,0,-.67E-6,0
SYRACUSE 3A,2005-041B,2026-07-01T21:05:42.429120,1.00274419,.00027669,4.6788,75.6568,21.9192,185.4403,0,U,28885,999,7589,0,.136E-5,0
INMARSAT 4-F2,2005-044A,2026-07-02T11:42:13.105152,1.00270461,.0003205,5.1138,43.6644,48.1907,147.7098,0,U,28899,999,7567,0,-.252E-5,0
METEOSAT-9 (MSG-2),2005-049B,2026-07-01T22:48:31.463424,1.00267469,.00471692,9.3931,54.0485,309.1789,305.1071,0,U,28912,999,714,0,.128E-5,0
EUTELSAT 174A,2005-052A,2026-07-02T12:53:38.919264,1.00269298,.0006171,4.2551,76.3424,25.8902,185.7698,0,U,28924,999,5248,0,.17E-6,0
ECHOSTAR 10,2006-003A,2026-07-02T13:27:29.056608,1.00272367,.00017621,0.0321,310.8409,113.5047,307.9415,0,U,28935,999,7461,0,-.45E-6,0
SPAINSAT,2006-007A,2026-07-02T07:19:33.628512,1.00269972,.0005059,0.6002,86.3082,13.9420,259.8020,0,U,28945,999,7436,0,-.207E-5,0
JCSAT-5A,2006-010A,2026-07-02T13:54:57.013056,1.00273174,.00021638,1.1473,84.0800,5.3412,171.9749,0,U,29045,999,7392,0,-.318E-5,0
ASTRA 1KR,2006-012A,2026-07-02T14:04:19.279200,1.00271451,.00036955,0.5114,83.2328,11.3485,56.1118,0,U,29055,999,4585,0,.129E-5,0
GALAXY 16 (G-16),2006-023A,2026-07-02T10:05:25.261728,1.00271883,.00027619,0.0148,112.6798,344.7452,235.3937,0,U,29236,999,7312,0,-.116E-5,0
EUTELSAT 33F,2006-032A,2026-07-02T07:17:44.363616,1.00272736,.00037098,1.6984,82.0876,17.5281,323.2356,0,U,29270,999,4745,0,.165E-5,0
