NIMIQ 2                 
1 27632U 02062A   26183.33794516 -.00000064  00000+0  00000+0 0  9997
2 27632   9.4788  56.7356 0005661  40.9478 195.1736  1.00272169 44334
USA 167                 
1 27691U 03008A   26183.20198228  .00000009  00000+0  00000+0 0  9995
2 27691  10.9890  43.2717 0003449 317.9260 230.0707  1.00272192  6926
USA 169 (MILSTAR-2 4)   
1 27711U 03012A   26183.39882042 -.00000236  00000+0  00000+0 0  9990
2 27711  12.3711  29.7143 0100254   9.9927 176.4581  1.00271480 33101
ASIASAT 4               
1 27718U 03014A   26183.54048406 -.00000214  00000+0  00000+0 0  9990
2 27718   4.7426  75.5536 0002867  28.9029 158.2288  1.00272875 45458
HELLAS-SAT 2            
1 27811U 03020A   26183.36676348 -.00000078  00000+0  00000+0 0  9991
2 27811   7.3900  67.7034 0003239  57.6400 277.0736  1.00272209 42995
THURAYA-2               
1 27825U 03026A   26183.16355837  .00000131  00000+0  00000+0 0  9996
2 27825   8.8621  31.9095 0002699  15.8078 335.3888  1.00270456 84491
OPTUS C1                
1 27831U 03028B   26183.49172508 -.00000144  00000+0  00000+0 0  9998
2 27831   6.9255  69.2253 0005677  28.3795 155.7109  1.00271527 53210
USA 170                 
1 27875U 03040A   26182.96787218  .00000131  00000+0  00000+0 0  9996
2 27875  10.5295  47.8062 0001877  28.3289 216.5069  1.00272595 33146
GALAXY 13 (HORIZONS-1)  
1 27954U 03044A   26183.55286626  .00000142  00000+0  00000+0 0  9993
2 27954   1.4582  83.6672 0001696  13.5458 232.3808  1.00272262 46726
YAMAL 202               
1 28089U 03053A   26183.68230366 -.00000073  00000+0  00000+0 0  9991
2 28089   6.3818  70.7514 0003316  22.7258 236.4110  1.00271841 82852
UFO 11 (USA 174)        
1 28117U 03057A   26183.45535870 -.00000098  00000+0  00000+0 0  9997
2 28117   8.9499  33.7514 0002501  78.2029  48.0736  1.00272126 82604
USA 176 (DSP 22)        
1 28158U 04004A   26183.43022465 -.00000290  00000+0  00000+0 0  9998
2 28158  12.0816  25.9539 0000858 315.6529  44.4742  1.00271611 33087
ABS-4 (MOBISAT-1)       
1 28184U 04007A   26183.23824863  .00000047  00000+0  00000+0 0  9999
2 28184   6.0786  71.8244 0004509  28.9774 326.1964  1.00270167 52487
INTELSAT 10-02          
1 28358U 04022A   26183.08334034 -.00000001  00000+0  00000+0 0  9999
2 28358   0.0388 265.6144 0000321 255.3379 148.1780  1.00271302 80705
ANIK F2                 
1 28378U 04027A   26183.56057964 -.00000041  00000+0  00000+0 0  9997
2 28378   3.3249  79.2442 0004086  20.3625 271.6789  1.00271863 41413
AMC-15                  
1 28446U 04041A   26183.56161964 -.00000078  00000+0  00000+0 0  9995
2 28446   0.0153 352.0544 0002483 110.5324 275.1455  1.00271876 79457
NSS-10                  
1 28526U 05003A   26183.28809318 -.00000245  00000+0  00000+0 0  9990
2 28526   6.4850  70.2716 0003105  25.7363 250.5794  1.00273242 53300
INMARSAT 4-F1           
1 28628U 05009A   26183.40402043  .00000041  00000+0  00000+0 0  9990
2 28628   5.1874  42.7719 0002927  61.5295 139.7012  1.00271734 77823
DIRECTV 8               
1 28659U 05019A   26183.34350281  .00000000  00000+0  00000+0 0  9999
2 28659   0.0190  26.9867 0003334  86.8864 171.1311  1.00270485 77223
GALAXY 28 (G-28)        
1 28702U 05022A   26183.22074189 -.00000192  00000+0  00000+0 0  9992
2 28702   3.3353  78.7558 0002536  18.2071 235.6688  1.00270650 52122
THAICOM 4               
1 28786U 05028A   26183.60627222 -.00000352  00000+0  00000+0 0  9992
2 28786   0.2831  85.6916 0001912   3.4386 169.2810  1.00271077 52402
ANIK F1R                
1 28868U 05036A   26183.41294594 -.00000067  00000+0  00000+0 0  9996
2 28868   4.3493  76.3959 0004314  13.7403 231.6770  1.00272064 46600
SYRACUSE 3A             
1 28885U 05041B   26182.87896330  .00000136  00000+0  00000+0 0  9992
2 28885   4.6788  75.6568 0002766  21.9192 185.4403  1.00274419 75890
INMARSAT 4-F2           
1 28899U 05044A   26183.48765168 -.00000252  00000+0  00000+0 0  9992
2 28899   5.1138  43.6644 0003205  48.1907 147.7098  1.00270461 75674
METEOSAT-9 (MSG-2)      
1 28912U 05049B   26182.95036416  .00000128  00000+0  00000+0 0  9992
2 28912   9.3931  54.0485 0047169 309.1789 305.1071  1.00267469  7143
EUTELSAT 174A           
1 28924U 05052A   26183.53725601  .00000017  00000+0  00000+0 0  9992
2 28924   4.2551  76.3424 0006171  25.8902 185.7698  1.00269298 52481
ECHOSTAR 10             
1 28935U 06003A   26183.56075297 -.00000045  00000+0  00000+0 0  9995
2 28935   0.0321 310.8409 0001762 113.5047 307.9415  1.00272367 74612
SPAINSAT                
1 28945U 06007A   26183.30525033 -.00000207  00000+0  00000+0 0  9990
2 28945   0.6002  86.3082 0005059  13.9420 259.8020  1.00269972 74365
JCSAT-5A                
1 29045U 06010A   26183.57982654 -.00000318  00000+0  00000+0 0  9994
2 29045   1.1473  84.0800 0002163   5.3412 171.9749  1.00273174 73929
ASTRA 1KR               
1 29055U 06012A   26183.58633425  .00000129  00000+0  00000+0 0  9996
2 29055   0.5114  83.2328 0003695  11.3485  56.1118  1.00271451 45850
GALAXY 16 (G-16)        
1 29236U 06023A   26183.42043127 -.00000116  00000+0  00000+0 0  9993
2 29236   0.0148 112.6798 0002761 344.7452 235.3937  1.00271883 73121
EUTELSAT 33F            
1 29270U 06032A   26183.30398569  .00000165  00000+0  00000+0 0  9994
2 29270   1.6984  82.0876 0003709  17.5281 323.2356  1.00272736 47456
